{
    "links": {
        "self": "http://www.neowsapp.com/rest/v1/neo/3601668?api_key=iIulBulltgU6a56xZRHN4H3l9WmuAYTsLGpBGhQ2"
    },
    "id": "3601668",
    "neo_reference_id": "3601668",
    "name": "(2012 FO35)",
    "designation": "2012 FO35",
    "nasa_jpl_url": "http://ssd.jpl.nasa.gov/sbdb.cgi?sstr=3601668",
    "absolute_magnitude_h": 23.6,
    "estimated_diameter": {
        "kilometers": {
            "estimated_diameter_min": 0.0506471459,
            "estimated_diameter_max": 0.1132504611
        },
        "meters": {
            "estimated_diameter_min": 50.6471458835,
            "estimated_diameter_max": 113.2504610618
        },
        "miles": {
            "estimated_diameter_min": 0.0314706677,
            "estimated_diameter_max": 0.0703705522
        },
        "feet": {
            "estimated_diameter_min": 166.1651821003,
            "estimated_diameter_max": 371.5566426699
        }
    },
    "is_potentially_hazardous_asteroid": false,
    "close_approach_data": [
        {
            "close_approach_date": "2012-04-13",
            "close_approach_date_full": "2012-Apr-13 08:46",
            "epoch_date_close_approach": 1334306760000,
            "relative_velocity": {
                "kilometers_per_second": "15.1062674147",
                "kilometers_per_hour": "54382.5626929283",
                "miles_per_hour": "33791.2095799476"
            },
            "miss_distance": {
                "astronomical": "0.0575372034",
                "lunar": "22.3819721226",
                "kilometers": "8607443.074396758",
                "miles": "5348417.1170329404"
            },
            "orbiting_body": "Earth"
        },
        {
            "close_approach_date": "2080-10-02",
            "close_approach_date_full": "2080-Oct-02 16:53",
            "epoch_date_close_approach": 3495113580000,
            "relative_velocity": {
                "kilometers_per_second": "29.8107667348",
                "kilometers_per_hour": "107318.7602451756",
                "miles_per_hour": "66683.7041090092"
            },
            "miss_distance": {
                "astronomical": "0.4743513084",
                "lunar": "184.5226589676",
                "kilometers": "70961945.368353108",
                "miles": "44093708.1994765704"
            },
            "orbiting_body": "Earth"
        }
    ],
    "orbital_data": {
        "orbit_id": "8",
        "orbit_determination_date": "2017-04-06 08:50:21",
        "first_observation_date": "2012-03-23",
        "last_observation_date": "2012-04-07",
        "data_arc_in_days": 15,
        "observations_used": 27,
        "orbit_uncertainty": "9",
        "minimum_orbit_intersection": ".0337521",
        "jupiter_tisserand_invariant": "3.829",
        "epoch_osculation": "2456012.5",
        "eccentricity": ".5792442586693428",
        "semi_major_axis": "1.809673728958315",
        "inclination": "7.155829479456435",
        "ascending_node_longitude": "179.362127561271",
        "orbital_period": "889.1987623481936",
        "perihelion_distance": ".7614306113944707",
        "perihelion_argument": "93.27962104988333",
        "aphelion_distance": "2.85791684652216",
        "perihelion_time": "2456077.161703333044",
        "mean_anomaly": "333.8211363020538",
        "mean_motion": ".4048588631065039",
        "equinox": "J2000",
        "orbit_class": {
            "orbit_class_type": "APO",
            "orbit_class_description": "Near-Earth asteroid orbits which cross the Earth’s orbit similar to that of 1862 Apollo",
            "orbit_class_range": "a (semi-major axis) > 1.0 AU; q (perihelion) < 1.017 AU"
        }
    },
    "is_sentry_object": false
}